NORAD_CAT_ID,OBJECT_NAME,OBJECT_TYPE,EPOCH,MEAN_MOTION,ECCENTRICITY,INCLINATION,RA_OF_ASC_NODE,ARG_OF_PERICENTER,MEAN_ANOMALY,BSTAR,MEAN_MOTION_DOT,MEAN_MOTION_DDOT,TLE_LINE0,TLE_LINE1,TLE_LINE2,SEMIMAJOR_AXIS,PERIOD,APOGEE,PERIGEE,DECAYED
52997.0,STARLINK-4301,PAYLOAD,2022-09-10 14:00:01,15.20038061,0.0001636999999999,53.2177,62.9731,39.9928,309.5559,-0.0532669999999999,-0.01064446,0.0,0 STARLINK-4301,1 52997U 22076M   22253.58334491 -.01064446  00000-0 -53267-1 0  9991,2 52997  53.2177  62.9731 0001637  39.9928 309.5559 15.20038061 10669,6883.863,94.734,506.855,504.601,0.0
52997.0,STARLINK-4301,PAYLOAD,2022-09-10 22:00:00,15.19276111,0.0001549,53.2174,61.4526,43.7006,330.4346,-0.054238,-0.01060311,0.0,0 STARLINK-4301,1 52997U 22076M   22253.91667824 -.01060311  00000-0 -54238-1 0  9993,2 52997  53.2174  61.4526 0001549  43.7006 330.4346 15.19276111  1300,6886.1640000000025,94.782,509.096,506.962,0.0
52997.0,STARLINK-4301,PAYLOAD,2022-09-11 14:00:01,15.17759424,0.0001769,53.2176,58.4132,37.7,22.87,-0.056923,-0.01077992,0.0,0 STARLINK-4301,1 52997U 22076M   22254.58334491 -.01077992  00000-0 -56923-1 0  9994,2 52997  53.2176  58.4132 0001769  37.7000  22.8700 15.17759424  1309,6890.751,94.877,513.835,511.397,0.0
52997.0,STARLINK-4301,PAYLOAD,2022-09-11 22:00:00,15.1699631,0.0001864,53.2173,56.8978,35.8001,46.6188,-0.057821,-0.0107166,0.0,0 STARLINK-4301,1 52997U 22076M   22254.91667824 -.01071660  00000-0 -57821-1 0  9994,2 52997  53.2173  56.8978 0001864  35.8001  46.6188 15.16996310  1302,6893.062,94.924,516.211,513.6419999999998,0.0
52997.0,STARLINK-4301,PAYLOAD,2022-09-12 12:00:00,15.15669442,0.0001773,53.2176,54.2466,36.3348,352.1227,-0.06027,-0.01075052,0.0,0 STARLINK-4301,1 52997U 22076M   22255.50001157 -.01075052  00000-0 -60270-1 0  9992,2 52997  53.2176  54.2466 0001773  36.3348 352.1227 15.15669442 10950,6897.084,95.008,520.172,517.726,0.0
52997.0,STARLINK-4301,PAYLOAD,2022-09-12 14:00:01,15.15479788,0.0001955,53.2175,53.869,37.2131,86.1645,-0.060666,-0.01076214,0.0,0 STARLINK-4301,1 52997U 22076M   22255.58334491 -.01076214  00000-0 -60666-1 0  9990,2 52997  53.2175  53.8690 0001955  37.2131  86.1645 15.15479788  1304,6897.659000000002,95.019,520.873,518.1759999999998,0.0
52997.0,STARLINK-4301,PAYLOAD,2022-09-12 22:00:00,15.14716991,0.0002006999999999,53.2173,52.3588,35.9501,106.5383,-0.061619,-0.01070106,0.0,0 STARLINK-4301,1 52997U 22076M   22255.91667824 -.01070106  00000-0 -61619-1 0  9999,2 52997  53.2173  52.3588 0002007  35.9501 106.5383 15.14716991  1302,6899.975,95.067,523.225,520.455,0.0
52997.0,STARLINK-4301,PAYLOAD,2022-09-13 06:00:00,15.13958954,0.0001802,53.2174,50.8477,43.3427,117.3441,-0.063136,-0.01072871,0.0,0 STARLINK-4301,1 52997U 22076M   22256.25001157 -.01072871  00000-0 -63136-1 0  9995,2 52997  53.2174  50.8477 0001802  43.3427 117.3441 15.13958954 11071,6902.278,95.115,525.387,522.899,0.0
52997.0,STARLINK-4301,PAYLOAD,2022-09-13 14:00:01,15.13199989,0.0001855999999999,53.2175,49.3408,44.3622,133.609,-0.064563,-0.01073786,0.0,0 STARLINK-4301,1 52997U 22076M   22256.58334491 -.01073786  00000-0 -64563-1 0  9992,2 52997  53.2175  49.3408 0001856  44.3622 133.6090 15.13199989  1307,6904.5859999999975,95.163,527.732,525.169,0.0
52997.0,STARLINK-4301,PAYLOAD,2022-09-13 22:00:00,15.12439034,0.0001963,53.2172,47.8358,38.8912,155.4521,-0.0657529999999999,-0.01070678,0.0,0 STARLINK-4301,1 52997U 22076M   22256.91667824 -.01070678  00000-0 -65753-1 0  9997,2 52997  53.2172  47.8358 0001963  38.8912 155.4521 15.12439034  1308,6906.901,95.21,530.122,527.411,0.0
52997.0,STARLINK-4301,PAYLOAD,2022-09-14 06:00:00,15.11681032,0.0001918,53.2172,46.3306,38.9437,170.8598,-0.067374,-0.0107377,0.0,0 STARLINK-4301,1 52997U 22076M   22257.25001157 -.01073770  00000-0 -67374-1 0  9993,2 52997  53.2172  46.3306 0001918  38.9437 170.8598 15.11681032 11221,6909.21,95.258,532.4,529.75,0.0
52997.0,STARLINK-4301,PAYLOAD,2022-09-14 14:00:01,15.10939469,0.0001718,53.2171,44.8294,52.0814,172.2582,-0.070359,-0.01096513,0.0,0 STARLINK-4301,1 52997U 22076M   22257.58334491 -.01096513  00000-0 -70359-1 0  9996,2 52997  53.2171  44.8294 0001718  52.0814 172.2582 15.10939469  1309,6911.471,95.305,534.523,532.148,0.0
52997.0,STARLINK-4301,PAYLOAD,2022-09-14 22:00:00,15.10057391,0.0001675999999999,53.2168,43.3298,48.4572,189.5815,-0.060707,-0.00923833,0.0,0 STARLINK-4301,1 52997U 22076M   22257.91667824 -.00923833  00000-0 -60707-1 0  9991,2 52997  53.2168  43.3298 0001676  48.4572 189.5815 15.10057391  1301,6914.1619999999975,95.361,537.186,534.868,0.0
52997.0,STARLINK-4301,PAYLOAD,2022-09-15 14:00:01,15.08880228,0.0001879,53.2157,40.3392,38.3017,224.2438,-0.00079307,-0.00012902,0.0,0 STARLINK-4301,1 52997U 22076M   22258.58334491 -.00012902  00000-0 -79307-3 0  9990,2 52997  53.2157  40.3392 0001879  38.3017 224.2438 15.08880228  1306,6917.757,95.435,540.922,538.323,0.0
52997.0,STARLINK-4301,PAYLOAD,2022-09-15 22:00:00,15.08888586,0.0002026,53.2157,38.8434,35.4163,238.7632,-0.0014544,-0.00023392,0.0,0 STARLINK-4301,1 52997U 22076M   22258.91667824 -.00023392  00000-0 -14544-2 0  9992,2 52997  53.2157  38.8434 0002026  35.4163 238.7632 15.08888586  1301,6917.732,95.434,540.998,538.195,0.0
52997.0,STARLINK-4301,PAYLOAD,2022-09-16 02:00:01,15.08893339,0.0001979,53.216,38.094,38.8993,61.1053,-0.0033954,-0.00054001,0.0,0 STARLINK-4301,1 52997U 22076M   22259.08334491 -.00054001  00000-0 -33954-2 0  9999,2 52997  53.2160  38.0940 0001979  38.8993  61.1053 15.08893339 11503,6917.717,95.434,540.951,538.2130000000002,0.0
52997.0,STARLINK-4301,PAYLOAD,2022-09-16 14:00:01,15.08863061,0.0002077,53.2162,35.8499,41.9524,255.4922,-0.0044686,-0.00070755,0.0,0 STARLINK-4301,1 52997U 22076M   22259.58334491 -.00070755  00000-0 -44686-2 0  9992,2 52997  53.2162  35.8499 0002077  41.9524 255.4922 15.08863061  1303,6917.81,95.436,541.112,538.238,0.0
52997.0,STARLINK-4301,PAYLOAD,2022-09-16 22:00:00,15.08816347,0.0002134999999999,53.216,34.354,37.7999,271.2315,0.00073864,0.00011479,0.0,0 STARLINK-4301,1 52997U 22076M   22259.91667824  .00011479  00000-0  73864-3 0  9995,2 52997  53.2160  34.3540 0002135  37.7999 271.2315 15.08816347 11629,6917.953,95.439,541.295,538.341,0.0
52997.0,STARLINK-4301,PAYLOAD,2022-09-17 14:00:01,15.08839489,0.0002099,53.2164,31.361,41.2194,290.9486,-0.00099292,-0.00016056,0.0,0 STARLINK-4301,1 52997U 22076M   22260.58334491 -.00016056  00000-0 -99292-3 0  9992,2 52997  53.2164  31.3610 0002099  41.2194 290.9486 15.08839489  1307,6917.882,95.438,541.1990000000002,538.295,0.0
52997.0,STARLINK-4301,PAYLOAD,2022-09-17 22:00:00,15.0884486,0.0002154999999999,53.2161,29.8648,38.2737,305.4812,0.00013234,1.819e-05,0.0,0 STARLINK-4301,1 52997U 22076M   22260.91667824  .00001819  00000-0  13234-3 0  9999,2 52997  53.2161  29.8648 0002155  38.2737 305.4812 15.08844860  1303,6917.866,95.437,541.221,538.24,0.0
52997.0,STARLINK-4301,PAYLOAD,2022-09-18 06:00:00,15.08824871,0.0001938,53.2162,28.3669,43.2585,312.1063,0.0034597,0.00055182,0.0,0 STARLINK-4301,1 52997U 22076M   22261.25001157  .00055182  00000-0  34597-2 0  9994,2 52997  53.2162  28.3669 0001938  43.2585 312.1063 15.08824871 11827,6917.927,95.439,541.132,538.451,0.0
52997.0,STARLINK-4301,PAYLOAD,2022-09-18 14:00:01,15.08869793,0.0002059,53.2163,26.8718,39.5147,327.514,-0.0039346,-0.00062418,0.0,0 STARLINK-4301,1 52997U 22076M   22261.58335648 -.00062418  00000-0 -39346-2 0  9994,2 52997  53.2163  26.8718 0002059  39.5147 327.5140 15.08869793  1303,6917.7890000000025,95.436,541.0790000000002,538.23,0.0
52997.0,STARLINK-4301,PAYLOAD,2022-09-18 22:00:00,15.08846359,0.0002073,53.2159,25.3754,35.9334,342.6366,-0.00014838,-2.649e-05,0.0,0 STARLINK-4301,1 52997U 22076M   22261.91667824 -.00002649  00000-0 -14838-3 0  9995,2 52997  53.2159  25.3754 0002073  35.9334 342.6366 15.08846359  1307,6917.861,95.437,541.16,538.2919999999998,0.0
52997.0,STARLINK-4301,PAYLOAD,2022-09-19 14:00:01,15.08834078,0.0001968,53.2159,22.3829,35.9975,5.7446,-0.00078469,-0.00012753,0.0,0 STARLINK-4301,1 52997U 22076M   22262.58334491 -.00012753  00000-0 -78469-3 0  9997,2 52997  53.2159  22.3829 0001968  35.9975   5.7446 15.08834078  1301,6917.898,95.438,541.125,538.4019999999998,0.0
52997.0,STARLINK-4301,PAYLOAD,2022-09-19 22:00:00,15.08844438,0.0002004,53.2155,20.8862,33.8853,19.4333,-0.00053972,-8.869e-05,0.0,0 STARLINK-4301,1 52997U 22076M   22262.91667824 -.00008869  00000-0 -53972-3 0  9998,2 52997  53.2155  20.8862 0002004  33.8853  19.4333 15.08844438  1309,6917.8669999999975,95.437,541.118,538.345,0.0
52997.0,STARLINK-4301,PAYLOAD,2022-09-20 06:00:00,15.08828258,0.000181,53.2155,19.3884,38.4314,26.4934,0.0031652,0.00050431,0.0,0 STARLINK-4301,1 52997U 22076M   22263.25001157  .00050431  00000-0  31652-2 0  9997,2 52997  53.2155  19.3884 0001810  38.4314  26.4934 15.08828258 12122,6917.916,95.438,541.033,538.529,0.0
52997.0,STARLINK-4301,PAYLOAD,2022-09-20 14:00:01,15.08831511,0.0002104,53.2155,17.8937,39.6319,36.8648,-0.00063324,-0.0001035,0.0,0 STARLINK-4301,1 52997U 22076M   22263.58334491 -.00010350  00000-0 -63324-3 0  9993,2 52997  53.2155  17.8937 0002104  39.6319  36.8648 15.08831511  1300,6917.906,95.438,541.227,538.316,0.0
52997.0,STARLINK-4301,PAYLOAD,2022-09-20 22:00:01,15.08845132,0.0002126,53.2153,16.3969,37.7503,50.38399999999999,-0.00085532,-0.00013877,0.0,0 STARLINK-4301,1 52997U 22076M   22263.91668981 -.00013877  00000-0 -85532-3 0  9996,2 52997  53.2153  16.3969 0002126  37.7503  50.3840 15.08845132  1304,6917.865,95.437,541.2,538.259,0.0
52997.0,STARLINK-4301,PAYLOAD,2022-09-21 08:00:01,15.08856292,0.0001986,53.2157,14.5254,43.4574,149.1071,-0.00017044,-3.001e-05,0.0,0 STARLINK-4301,1 52997U 22076M   22264.33334491 -.00003001  00000-0 -17044-3 0  9990,2 52997  53.2157  14.5254 0001986  43.4574 149.1071 15.08856292 12292,6917.831,95.437,541.069,538.322,0.0
